ONEWEB-0393             
1 50473U 21132E   23260.36510616  .00000140  00000+0  32767-3 0  9991
2 50473  87.9231 205.2956 0001973  69.3044 290.8299 13.17647173 87202
ONEWEB-0394             
1 50474U 21132F   23260.32761553  .00004466  00000+0  11293-1 0  9990
2 50474  87.9300 175.0800 0001888  71.8921 288.2417 13.18664875 90564
ONEWEB-0395             
1 50475U 21132G   23260.40580426  .00000864  00000+0  24017-2 0  9995
2 50475  87.8945 220.4851 0001910  76.5345 283.5996 13.11414781 85429
ONEWEB-0396             
1 50476U 21132H   23260.32129541  .00000033  00000+0  51008-4 0  9994
2 50476  87.9299 175.0728 0001682  78.3072 281.8249 13.18686511 90601
ONEWEB-0397             
1 50477U 21132J   23260.03254103  .00000013  00000+0  49376-6 0  9991
2 50477  87.9299 175.1309 0001582  78.5030 281.6280 13.18684586 90549
ONEWEB-0398             
1 50478U 21132K   23259.91622110 -.00000402  00000+0 -11696-2 0  9998
2 50478  87.8939 220.5759 0002021  63.6646 296.4690 13.11416815 85264
ONEWEB-0399             
1 50479U 21132L   23259.97980203  .00000389  00000+0  10604-2 0  9995
2 50479  87.8939 220.5747 0002256  96.2342 263.9043 13.11418133 85263
ONEWEB-0400             
1 50480U 21132M   23260.31497537  .00002762  00000+0  69726-2 0  9996
2 50480  87.9230 175.1070 0001925  62.8192 297.3136 13.18672591 90580
